IRIDIUM 106             
1 41917U 17003A   25359.86025749  .00000000  00000+0 -71057-5 0  9993
2 41917  86.3996 160.9761 0002331  94.0512 266.0950 14.34217645468367
IRIDIUM 103             
1 41918U 17003B   25359.98711205  .00000246  00000+0  80867-4 0  9995
2 41918  86.3993 160.8235 0001890 104.6184 255.5221 14.34219618468403
IRIDIUM 109             
1 41919U 17003C   25359.99345154  .00000448  00000+0  15291-3 0  9995
2 41919  86.3997 160.8771 0002010  96.1378 264.0047 14.34217195468373
IRIDIUM 102             
1 41920U 17003D   25359.54312616  .00000119  00000+0  35466-4 0  9997
2 41920  86.3991 160.9925 0001995  90.6349 269.5075 14.34218427468391
IRIDIUM 105             
1 41921U 17003E   25359.86271170  .00000205  00000+0  66017-4 0  9994
2 41921  86.3985 129.3505 0001979  96.8711 263.2710 14.34217523470296
IRIDIUM 104             
1 41922U 17003F   25359.97442235  .00000067  00000+0  16903-4 0  9994
2 41922  86.3992 160.8525 0001671  96.5075 263.6311 14.34217946468440
IRIDIUM 114             
1 41923U 17003G   25359.91099493  .00000254  00000+0  83764-4 0  9990
2 41923  86.4012 160.8633 0001973  96.1647 263.9773 14.34214981468419
IRIDIUM 108             
1 41924U 17003H   25359.86951896 -.00000016  00000+0 -12736-4 0  9998
2 41924  86.3985 129.2370 0001942  90.1380 270.0038 14.34217673470269
